{
    "links": {
        "self": "http://www.neowsapp.com/rest/v1/neo/54017058?api_key=iIulBulltgU6a56xZRHN4H3l9WmuAYTsLGpBGhQ2"
    },
    "id": "54017058",
    "neo_reference_id": "54017058",
    "name": "(2020 KF)",
    "designation": "2020 KF",
    "nasa_jpl_url": "http://ssd.jpl.nasa.gov/sbdb.cgi?sstr=54017058",
    "absolute_magnitude_h": 25.647,
    "estimated_diameter": {
        "kilometers": {
            "estimated_diameter_min": 0.0197312671,
            "estimated_diameter_max": 0.0441204546
        },
        "meters": {
            "estimated_diameter_min": 19.731267145,
            "estimated_diameter_max": 44.1204546185
        },
        "miles": {
            "estimated_diameter_min": 0.0122604372,
            "estimated_diameter_max": 0.027415171
        },
        "feet": {
            "estimated_diameter_min": 64.7351305001,
            "estimated_diameter_max": 144.7521523306
        }
    },
    "is_potentially_hazardous_asteroid": false,
    "close_approach_data": [
        {
            "close_approach_date": "1930-05-07",
            "close_approach_date_full": "1930-May-07 11:00",
            "epoch_date_close_approach": -1251378000000,
            "relative_velocity": {
                "kilometers_per_second": "23.0373260539",
                "kilometers_per_hour": "82934.3737939975",
                "miles_per_hour": "51532.1946499425"
            },
            "miss_distance": {
                "astronomical": "0.4283147403",
                "lunar": "166.6144339767",
                "kilometers": "64074972.838483161",
                "miles": "39814341.9062671818"
            },
            "orbiting_body": "Earth"
        },
        {
            "close_approach_date": "1934-06-27",
            "close_approach_date_full": "1934-Jun-27 16:22",
            "epoch_date_close_approach": -1120721880000,
            "relative_velocity": {
                "kilometers_per_second": "9.1334239489",
                "kilometers_per_hour": "32880.3262160456",
                "miles_per_hour": "20430.5560312979"
            },
            "miss_distance": {
                "astronomical": "0.0500252202",
                "lunar": "19.4598106578",
                "kilometers": "7483666.388200974",
                "miles": "4650134.6640184812"
            },
            "orbiting_body": "Mars"
        },
        {
            "close_approach_date": "2015-05-13",
            "close_approach_date_full": "2015-May-13 15:10",
            "epoch_date_close_approach": 1431529800000,
            "relative_velocity": {
                "kilometers_per_second": "9.0373095345",
                "kilometers_per_hour": "32534.3143243129",
                "miles_per_hour": "20215.5576977932"
            },
            "miss_distance": {
                "astronomical": "0.0426087251",
                "lunar": "16.5747940639",
                "kilometers": "6374174.518375537",
                "miles": "3960728.3843029306"
            },
            "orbiting_body": "Mars"
        },
        {
            "close_approach_date": "2018-10-29",
            "close_approach_date_full": "2018-Oct-29 14:39",
            "epoch_date_close_approach": 1540823940000,
            "relative_velocity": {
                "kilometers_per_second": "24.873375914",
                "kilometers_per_hour": "89544.1532902373",
                "miles_per_hour": "55639.2545819255"
            },
            "miss_distance": {
                "astronomical": "0.4977160803",
                "lunar": "193.6115552367",
                "kilometers": "74457265.477628961",
                "miles": "46265599.4034472218"
            },
            "orbiting_body": "Earth"
        },
        {
            "close_approach_date": "2020-06-02",
            "close_approach_date_full": "2020-Jun-02 17:00",
            "epoch_date_close_approach": 1591117200000,
            "relative_velocity": {
                "kilometers_per_second": "10.7738609303",
                "kilometers_per_hour": "38785.8993490872",
                "miles_per_hour": "24100.0495149925"
            },
            "miss_distance": {
                "astronomical": "0.0310245337",
                "lunar": "12.0685436093",
                "kilometers": "4641204.159263219",
                "miles": "2883910.5358576622"
            },
            "orbiting_body": "Earth"
        }
    ],
    "orbital_data": {
        "orbit_id": "6",
        "orbit_determination_date": "2020-08-22 06:34:00",
        "first_observation_date": "2020-05-12",
        "last_observation_date": "2020-05-29",
        "data_arc_in_days": 17,
        "observations_used": 36,
        "orbit_uncertainty": "8",
        "minimum_orbit_intersection": ".0302352",
        "jupiter_tisserand_invariant": "4.434",
        "epoch_osculation": "2458985.5",
        "eccentricity": ".4139615804915968",
        "semi_major_axis": "1.501857575750736",
        "inclination": "7.642050300291326",
        "ascending_node_longitude": "59.92949362894225",
        "orbital_period": "672.2666253228244",
        "perihelion_distance": ".8801462400196834",
        "perihelion_argument": "250.8833437100138",
        "aphelion_distance": "2.123568911481789",
        "perihelion_time": "2459049.234827376515",
        "mean_anomaly": "325.8698840738563",
        "mean_motion": ".5355018179388675",
        "equinox": "J2000",
        "orbit_class": {
            "orbit_class_type": "APO",
            "orbit_class_description": "Near-Earth asteroid orbits which cross the Earth’s orbit similar to that of 1862 Apollo",
            "orbit_class_range": "a (semi-major axis) > 1.0 AU; q (perihelion) < 1.017 AU"
        }
    },
    "is_sentry_object": false
}